GAOFEN-11 01            
1 43585U 18063A   26198.98324813  .00007436  00000+0  10789-3 0  9994
2 43585  97.1267 265.7906 0003481 186.8794 173.2414 15.56117064445138
ICESAT-2                
1 43613U 18070A   26198.93047237  .00004949  00000+0  18002-3 0  9993
2 43613  92.0091 299.2873 0005356  52.6753 307.4984 15.28205115437152
HYSIS                   
1 43719U 18096A   26198.93382432  .00000186  00000+0  32479-4 0  9991
2 43719  97.9826 265.4384 0001770  83.5146 276.6267 14.78671714411964
KAZSTSAT                
1 43783U 18099AB  26198.51821933  .00000190  00000+0  19765-4 0  9991
2 43783  97.4315 229.0803 0007259 331.4421  28.6404 14.99957207415851
SAUDISAT 5A             
1 43831U 18102A   26198.93974425  .00002942  00000+0  10916-3 0  9996
2 43831  97.3047 259.9310 0010185  34.9255 325.2652 15.28337188420370
SAUDISAT 5B             
1 43833U 18102C   26198.95357796  .00002737  00000+0  10096-3 0  9997
2 43833  97.3157 263.0701 0010968  36.2403 323.9578 15.28579408420491
GAOFEN-10R              
1 44622U 19066A   26198.98755815  .00000546  00000+0  73785-4 0  9992
2 44622  98.0510 152.7935 0006723  45.4133 314.7628 14.83060499366946
CARTOSAT-3              
1 44804U 19081A   26198.98148147  .00001603  00000+0  79309-4 0  9998
2 44804  97.4285 260.3498 0012770  50.0922 310.1433 15.19193625368143
GAOFEN-12 01            
1 44819U 19082A   26198.96713862  .00000156  00000+0  26994-4 0  9999
2 44819  97.8111 204.5355 0000829  59.1638 300.9656 14.80480785358640
CSG-1                   
1 44873U 19092A   26198.97118747  .00000147  00000+0  25086-4 0  9993
2 44873  97.8897  22.1293 0001431  95.0987 265.0390 14.82158104356038
NEMO-HD                 
1 46277U 20061F   26198.96104307  .00006573  00000+0  14046-3 0  9999
2 46277  97.1897 260.6128 0001019 104.9352 255.2010 15.45174114326738
SENTINEL-6A             
1 46984U 20086A   26198.92547703 -.00000047  00000+0  62706-4 0  9996
2 46984  66.0412  71.2096 0007775 269.6881  90.3243 12.80930208264267
CAS500-1                
1 47932U 21022A   26198.93481487  .00003161  00000+0  14923-3 0  9994
2 47932  97.3859  93.5596 0005474 161.7235 198.4198 15.20148664295430
GAOFEN-12 02            
1 48079U 21026A   26198.98151354  .00000141  00000+0  25465-4 0  9992
2 48079  97.9936 197.0385 0005975 124.9013 235.2761 14.80317170286310
PLEIADES NEO 3          
1 48268U 21034A   26198.98042196  .00000825  00000+0  11146-3 0  9993
2 48268  97.8940 273.3041 0001405  95.5246 264.6127 14.81672522282219
PLEIADES NEO 4          
1 49070U 21073E   26198.94664495 -.00000038  00000+0  18390-5 0  9993
2 49070  97.8939 273.2667 0001318  95.0856 265.0507 14.81673015265921
LANDSAT 9               
1 49260U 21088A   26198.82332373  .00000154  00000+0  44348-4 0  9993
2 49260  98.2268 268.6277 0001117  90.1199 270.0127 14.57096586255467
CSG-2                   
1 51444U 22008A   26198.93740777 -.00001097  00000+0 -13122-3 0  9990
2 51444  97.8890  22.0895 0001615  89.7164 270.4234 14.82174923241140
GAOFEN-12 03            
1 52912U 22069A   26198.94907485  .00000222  00000+0  35980-4 0  9994
2 52912  97.8236  86.0387 0002397  69.0416 291.1052 14.80077890219168
SWOT                    
1 54754U 22173A   26198.92792498 -.00000042  00000+0 -26864-4 0  9993
2 54754  77.6113 353.8088 0000234  67.6275 292.4902 14.00172474183458
GAOFEN-12 04            
1 57654U 23123A   26198.96932918  .00000454  00000+0  67188-4 0  9997
2 57654  97.9099 116.5264 0003372  44.6368 315.5115 14.79778145157189
PARS 1                  
1 59065U 24039Q   26198.92868876  .00006464  00000+0  13279-3 0  9997
2 59065  97.4844 180.8342 0009432  17.9832 342.1749 15.46326085133396
RESURS-P 4              
1 59371U 24061A   26198.95757258  .00001617  00000+0  54297-4 0  9997
2 59371  97.2760 146.3257 0003221  85.4461 274.7149 15.32289615128470
LEGION 1                
1 59625U 24081A   26198.90377623  .00001767  00000+0  93184-4 0  9994
2 59625  97.5010 276.4351 0007765 258.4134 101.6227 15.16853897122198
LEGION 2                
1 59626U 24081B   26198.93420165  .00001877  00000+0  98777-4 0  9993
2 59626  97.5010 276.5619 0010413 222.9654 137.0767 15.16833315122201
ALOS-4 (DAICHI-4)       
1 60182U 24123A   26198.93147368  .00000654  00000+0  94404-4 0  9995
2 60182  97.9221 295.6661 0001546  97.6570 262.4817 14.79474094110421
LEGION 3                
1 60452U 24146A   26198.90700994  .00001168  00000+0  74029-4 0  9999
2 60452  45.0016 225.8528 0007959 348.7581  11.3118 15.15663952106682
LEGION 4                
1 60453U 24146B   26198.84079519  .00001635  00000+0  98034-4 0  9996
2 60453  45.0026 318.0755 0009078 130.1467 230.0208 15.15691715105521
SENTINEL-2C             
1 60989U 24157A   26198.80193258  .00000044  00000+0  33447-4 0  9995
2 60989  98.5683 273.1491 0001011 105.0170 255.1125 14.30816119 97367
IONOSFERA-M 1           
1 61735U 24199A   26198.92616316  .00000018  00000+0  27568-4 0  9997
2 61735  98.7131  71.7681 0002121  69.1779 290.9626 14.22759517132078
