OBJECT_NAME,OBJECT_ID,EPOCH,MEAN_MOTION,ECCENTRICITY,INCLINATION,RA_OF_ASC_NODE,ARG_OF_PERICENTER,MEAN_ANOMALY,EPHEMERIS_TYPE,CLASSIFICATION_TYPE,NORAD_CAT_ID,ELEMENT_SET_NO,REV_AT_EPOCH,BSTAR,MEAN_MOTION_DOT,MEAN_MOTION_DDOT
GAOFEN-11 01,2018-063A,2026-07-17T23:35:52.638432,15.56117064,.00034812,97.1267,265.7906,186.8794,173.2414,0,U,43585,999,44513,.10788943E-3,.7436E-4,0
ICESAT-2,2018-070A,2026-07-17T22:19:52.812768,15.28205115,.00053561,92.0091,299.2873,52.6753,307.4984,0,U,43613,999,43715,.18002264E-3,.4949E-4,0
HYSIS,2018-096A,2026-07-17T22:24:42.421248,14.78671714,.000177,97.9826,265.4384,83.5146,276.6267,0,U,43719,999,41196,.32478927E-4,.186E-5,0
KAZSTSAT,2018-099AB,2026-07-17T12:26:14.150112,14.99957207,.0007259,97.4315,229.0803,331.4421,28.6404,0,U,43783,999,41585,.19765E-4,.19E-5,0
SAUDISAT 5A,2018-102A,2026-07-17T22:33:13.903200,15.28337188,.00101853,97.3047,259.9310,34.9255,325.2652,0,U,43831,999,42037,.10916E-3,.2942E-4,0
SAUDISAT 5B,2018-102C,2026-07-17T22:53:09.135744,15.28579408,.00109684,97.3157,263.0701,36.2403,323.9578,0,U,43833,999,42049,.10095799E-3,.2737E-4,0
GAOFEN-10R,2019-066A,2026-07-17T23:42:05.024160,14.83060499,.0006723,98.0510,152.7935,45.4133,314.7628,0,U,44622,999,36694,.73784856E-4,.546E-5,0
CARTOSAT-3,2019-081A,2026-07-17T23:33:19.999008,15.19193625,.00127709,97.4285,260.3498,50.0922,310.1433,0,U,44804,999,36814,.79308597E-4,.1603E-4,0
GAOFEN-12 01,2019-082A,2026-07-17T23:12:40.776768,14.80480785,.00008293,97.8111,204.5355,59.1638,300.9656,0,U,44819,999,35864,.26994411E-4,.156E-5,0
CSG-1,2019-092A,2026-07-17T23:18:30.597408,14.82158104,.00014316,97.8897,22.1293,95.0987,265.0390,0,U,44873,999,35603,.25086049E-4,.147E-5,0
NEMO-HD,2020-061F,2026-07-17T23:03:54.121248,15.45174114,.00010198,97.1897,260.6128,104.9352,255.2010,0,U,46277,999,32673,.1404598E-3,.6573E-4,0
SENTINEL-6A,2020-086A,2026-07-17T22:12:41.215392,12.80930208,.0007775,66.0412,71.2096,269.6881,90.3243,0,U,46984,999,26426,.62706471E-4,-.47E-6,0
CAS500-1,2021-022A,2026-07-17T22:26:08.004768,15.20148664,.00054747,97.3859,93.5596,161.7235,198.4198,0,U,47932,999,29543,.14923E-3,.3161E-4,0
GAOFEN-12 02,2021-026A,2026-07-17T23:33:22.769856,14.80317170,.00059755,97.9936,197.0385,124.9013,235.2761,0,U,48079,999,28631,.25464969E-4,.141E-5,0
PLEIADES NEO 3,2021-034A,2026-07-17T23:31:48.457344,14.81672522,.00014057,97.8940,273.3041,95.5246,264.6127,0,U,48268,999,28221,.11146017E-3,.825E-5,0
PLEIADES NEO 4,2021-073E,2026-07-17T22:43:10.123680,14.81673015,.00013188,97.8939,273.2667,95.0856,265.0507,0,U,49070,999,26592,.1839022E-5,-.38E-6,0
LANDSAT 9,2021-088A,2026-07-17T19:45:35.170272,14.57096586,.00011175,98.2268,268.6277,90.1199,270.0127,0,U,49260,999,25546,.44347925E-4,.154E-5,0
CSG-2,2022-008A,2026-07-17T22:29:52.031328,14.82174923,.00016152,97.8890,22.0895,89.7164,270.4234,0,U,51444,999,24114,-.13122433E-3,-.1097E-4,0
GAOFEN-12 03,2022-069A,2026-07-17T22:46:40.067040,14.80077890,.00023975,97.8236,86.0387,69.0416,291.1052,0,U,52912,999,21916,.35980453E-4,.222E-5,0
SWOT,2022-173A,2026-07-17T22:16:12.718272,14.00172474,.00002348,77.6113,353.8088,67.6275,292.4902,0,U,54754,999,18345,-.26863746E-4,-.42E-6,0
GAOFEN-12 04,2023-123A,2026-07-17T23:15:50.041152,14.79778145,.00033724,97.9099,116.5264,44.6368,315.5115,0,U,57654,999,15718,.67188466E-4,.454E-5,0
PARS 1,2024-039Q,2026-07-17T22:17:18.708864,15.46326085,.00094325,97.4844,180.8342,17.9832,342.1749,0,U,59065,999,13339,.13279222E-3,.6464E-4,0
RESURS-P 4,2024-061A,2026-07-17T22:58:54.270912,15.32289615,.00032214,97.2760,146.3257,85.4461,274.7149,0,U,59371,999,12847,.54297291E-4,.1617E-4,0
LEGION 1,2024-081A,2026-07-17T21:41:26.266272,15.16853897,.00077652,97.5010,276.4351,258.4134,101.6227,0,U,59625,999,12219,.93183551E-4,.1767E-4,0
LEGION 2,2024-081B,2026-07-17T22:25:15.022560,15.16833315,.00104133,97.5010,276.5619,222.9654,137.0767,0,U,59626,999,12220,.98776543E-4,.1877E-4,0
ALOS-4 (DAICHI-4),2024-123A,2026-07-17T22:21:19.325952,14.79474094,.00015465,97.9221,295.6661,97.6570,262.4817,0,U,60182,999,11042,.94403619E-4,.654E-5,0
LEGION 3,2024-146A,2026-07-17T21:46:05.658816,15.15663952,.00079592,45.0016,225.8528,348.7581,11.3118,0,U,60452,999,10668,.74029421E-4,.1168E-4,0
LEGION 4,2024-146B,2026-07-17T20:10:44.704416,15.15691715,.00090781,45.0026,318.0755,130.1467,230.0208,0,U,60453,999,10552,.98033984E-4,.1635E-4,0
SENTINEL-2C,2024-157A,2026-07-17T19:14:46.974912,14.30816119,.00010119,98.5683,273.1491,105.0170,255.1125,0,U,60989,999,9736,.33446937E-4,.44E-6,0
IONOSFERA-M 1,2024-199A,2026-07-17T22:13:40.497024,14.22759517,.00021219,98.7131,71.7681,69.1779,290.9626,0,U,61735,999,13207,.27567501E-4,.18E-6,0
